{"type":"FeatureCollection","_source":"OpenStreetMap contributors, ODbL 1.0","_generated":"2026-09-01","_warning":"Volunteer-mapped and incomplete. Absence of a camera here means nobody mapped one, NOT that none exists.","features":[{"type":"Feature","geometry":{"type":"Point","coordinates":[101.638622,2.868019]},"properties":{"kind":"speed_camera","country":"MY","road":"AWAS ELITE - Northbound","limit_kmh":110,"direction":"330","source":"OpenStreetMap (ODbL)","osm_id":33504292,"in_relation":true}},{"type":"Feature","geometry":{"type":"Point","coordinates":[102.695792,2.150884]},"properties":{"kind":"speed_camera","country":"MY","road":"KM 146.8 Lebuhraya PLUS \u2013 Pagoh (SB)","limit_kmh":110,"direction":"292","source":"OpenStreetMap (ODbL)","osm_id":36360549,"in_relation":true}},{"type":"Feature","geometry":{"type":"Point","coordinates":[102.408835,2.284102]},"properties":{"kind":"speed_camera","country":"MY","road":"KM 184.2 Lebuhraya PLUS, Jasin (NB)","limit_kmh":110,"direction":"90","source":"OpenStreetMap (ODbL)","osm_id":36363022,"in_relation":true}},{"type":"Feature","geometry":{"type":"Point","coordinates":[101.446145,3.782618]},"properties":{"kind":"speed_camera","country":"MY","road":"","limit_kmh":110,"direction":"140","source":"OpenStreetMap (ODbL)","osm_id":1754781964,"in_relation":true}},{"type":"Feature","geometry":{"type":"Point","coordinates":[101.078059,4.816789]},"properties":{"kind":"speed_camera","country":"MY","road":"F0001","limit_kmh":null,"direction":"","source":"OpenStreetMap (ODbL)","osm_id":2539785532,"in_relation":false}},{"type":"Feature","geometry":{"type":"Point","coordinates":[101.328722,3.962195]},"properties":{"kind":"speed_camera","country":"MY","road":"F0001","limit_kmh":90,"direction":"","source":"OpenStreetMap (ODbL)","osm_id":2539785533,"in_relation":false}},{"type":"Feature","geometry":{"type":"Point","coordinates":[100.735007,4.781638]},"properties":{"kind":"speed_camera","country":"MY","road":"F0001","limit_kmh":90,"direction":"","source":"OpenStreetMap (ODbL)","osm_id":2539785534,"in_relation":false}},{"type":"Feature","geometry":{"type":"Point","coordinates":[100.987961,3.974506]},"properties":{"kind":"speed_camera","country":"MY","road":"F0058","limit_kmh":90,"direction":"","source":"OpenStreetMap (ODbL)","osm_id":2539785535,"in_relation":false}},{"type":"Feature","geometry":{"type":"Point","coordinates":[101.705309,3.050883]},"properties":{"kind":"speed_camera","country":"MY","road":"E0002","limit_kmh":80,"direction":"","source":"OpenStreetMap (ODbL)","osm_id":2539785541,"in_relation":false}},{"type":"Feature","geometry":{"type":"Point","coordinates":[101.713906,2.943129]},"properties":{"kind":"speed_camera","country":"MY","road":"Z0002","limit_kmh":80,"direction":"","source":"OpenStreetMap (ODbL)","osm_id":2539785542,"in_relation":false}},{"type":"Feature","geometry":{"type":"Point","coordinates":[101.684278,2.946671]},"properties":{"kind":"speed_camera","country":"MY","road":"Z0022","limit_kmh":70,"direction":"","source":"OpenStreetMap (ODbL)","osm_id":2539785543,"in_relation":true}},{"type":"Feature","geometry":{"type":"Point","coordinates":[101.687009,3.177245]},"properties":{"kind":"speed_camera","country":"MY","road":"Z0060","limit_kmh":90,"direction":"130","source":"OpenStreetMap (ODbL)","osm_id":2539785544,"in_relation":true}},{"type":"Feature","geometry":{"type":"Point","coordinates":[103.308402,4.259262]},"properties":{"kind":"speed_camera","country":"MY","road":"AES Exit Chukai Eastbound","limit_kmh":110,"direction":"335","source":"OpenStreetMap (ODbL)","osm_id":2913745536,"in_relation":true}},{"type":"Feature","geometry":{"type":"Point","coordinates":[100.522916,5.698324]},"properties":{"kind":"speed_camera","country":"MY","road":"","limit_kmh":110,"direction":"200","source":"OpenStreetMap (ODbL)","osm_id":3096723692,"in_relation":true}},{"type":"Feature","geometry":{"type":"Point","coordinates":[115.629067,5.184501]},"properties":{"kind":"speed_camera","country":"MY","road":"Sipitang-Beaufort Speed Camera","limit_kmh":90,"direction":"clockwise","source":"OpenStreetMap (ODbL)","osm_id":3245903334,"in_relation":false}},{"type":"Feature","geometry":{"type":"Point","coordinates":[101.742603,2.974342]},"properties":{"kind":"speed_camera","country":"MY","road":"AES Kajang - Northbound","limit_kmh":90,"direction":"","source":"OpenStreetMap (ODbL)","osm_id":3665238029,"in_relation":true}},{"type":"Feature","geometry":{"type":"Point","coordinates":[101.673545,3.086043]},"properties":{"kind":"speed_camera","country":"MY","road":"Z0089","limit_kmh":90,"direction":"30","source":"OpenStreetMap (ODbL)","osm_id":4924613744,"in_relation":true}},{"type":"Feature","geometry":{"type":"Point","coordinates":[101.082207,4.582543]},"properties":{"kind":"speed_camera","country":"MY","road":"A0184","limit_kmh":60,"direction":"160","source":"OpenStreetMap (ODbL)","osm_id":4924613763,"in_relation":true}},{"type":"Feature","geometry":{"type":"Point","coordinates":[100.507459,5.677066]},"properties":{"kind":"speed_camera","country":"MY","road":"","limit_kmh":90,"direction":"110","source":"OpenStreetMap (ODbL)","osm_id":5339350341,"in_relation":true}},{"type":"Feature","geometry":{"type":"Point","coordinates":[100.4882,5.818353]},"properties":{"kind":"speed_camera","country":"MY","road":"","limit_kmh":90,"direction":"90","source":"OpenStreetMap (ODbL)","osm_id":5339362996,"in_relation":true}},{"type":"Feature","geometry":{"type":"Point","coordinates":[100.520691,5.691363]},"properties":{"kind":"speed_camera","country":"MY","road":"","limit_kmh":110,"direction":"15","source":"OpenStreetMap (ODbL)","osm_id":5487831322,"in_relation":true}},{"type":"Feature","geometry":{"type":"Point","coordinates":[102.401971,2.284515]},"properties":{"kind":"speed_camera","country":"MY","road":"KM 185 Lebuhraya PLUS, Jasin (SB)","limit_kmh":110,"direction":"270","source":"OpenStreetMap (ODbL)","osm_id":6110021790,"in_relation":true}},{"type":"Feature","geometry":{"type":"Point","coordinates":[102.247767,2.219631]},"properties":{"kind":"speed_camera","country":"MY","road":"","limit_kmh":null,"direction":"270","source":"OpenStreetMap (ODbL)","osm_id":6110034962,"in_relation":false}},{"type":"Feature","geometry":{"type":"Point","coordinates":[102.204906,2.433322]},"properties":{"kind":"speed_camera","country":"MY","road":"KM 214.4 Lebuhraya PLUS, Alor Gajah (NB)","limit_kmh":110,"direction":"140","source":"OpenStreetMap (ODbL)","osm_id":6120175279,"in_relation":true}},{"type":"Feature","geometry":{"type":"Point","coordinates":[102.205332,2.433017]},"properties":{"kind":"speed_camera","country":"MY","road":"KM 214.4 Lebuhraya PLUS, Alor Gajah (SB)","limit_kmh":110,"direction":"320","source":"OpenStreetMap (ODbL)","osm_id":6120175280,"in_relation":true}},{"type":"Feature","geometry":{"type":"Point","coordinates":[102.220587,2.204759]},"properties":{"kind":"speed_camera","country":"MY","road":"","limit_kmh":null,"direction":"300","source":"OpenStreetMap (ODbL)","osm_id":6122463885,"in_relation":false}},{"type":"Feature","geometry":{"type":"Point","coordinates":[102.24825,2.219812]},"properties":{"kind":"speed_camera","country":"MY","road":"","limit_kmh":null,"direction":"0","source":"OpenStreetMap (ODbL)","osm_id":6154342291,"in_relation":false}},{"type":"Feature","geometry":{"type":"Point","coordinates":[102.221266,2.20434]},"properties":{"kind":"speed_camera","country":"MY","road":"","limit_kmh":null,"direction":"110","source":"OpenStreetMap (ODbL)","osm_id":6154342292,"in_relation":false}},{"type":"Feature","geometry":{"type":"Point","coordinates":[101.18947,4.434622]},"properties":{"kind":"speed_camera","country":"MY","road":"AES PLUS Gua Tempurung - Northbound","limit_kmh":110,"direction":"310","source":"OpenStreetMap (ODbL)","osm_id":6274234495,"in_relation":true}},{"type":"Feature","geometry":{"type":"Point","coordinates":[101.519522,3.231236]},"properties":{"kind":"speed_camera","country":"MY","road":"E35","limit_kmh":110,"direction":"Northbound","source":"OpenStreetMap (ODbL)","osm_id":6804709747,"in_relation":false}},{"type":"Feature","geometry":{"type":"Point","coordinates":[102.074861,4.958716]},"properties":{"kind":"speed_camera","country":"MY","road":"AES Gua Musang","limit_kmh":90,"direction":"80","source":"OpenStreetMap (ODbL)","osm_id":7558328324,"in_relation":true}},{"type":"Feature","geometry":{"type":"Point","coordinates":[101.084586,4.630677]},"properties":{"kind":"speed_camera","country":"MY","road":"","limit_kmh":null,"direction":"","source":"OpenStreetMap (ODbL)","osm_id":8104184449,"in_relation":false}},{"type":"Feature","geometry":{"type":"Point","coordinates":[101.083596,4.630012]},"properties":{"kind":"speed_camera","country":"MY","road":"","limit_kmh":null,"direction":"","source":"OpenStreetMap (ODbL)","osm_id":8104196984,"in_relation":false}},{"type":"Feature","geometry":{"type":"Point","coordinates":[101.10419,4.650175]},"properties":{"kind":"speed_camera","country":"MY","road":"","limit_kmh":null,"direction":"","source":"OpenStreetMap (ODbL)","osm_id":8104536813,"in_relation":false}},{"type":"Feature","geometry":{"type":"Point","coordinates":[101.643294,3.118879]},"properties":{"kind":"speed_camera","country":"MY","road":"","limit_kmh":null,"direction":"","source":"OpenStreetMap (ODbL)","osm_id":8119172792,"in_relation":false}},{"type":"Feature","geometry":{"type":"Point","coordinates":[100.668147,4.905325]},"properties":{"kind":"speed_camera","country":"MY","road":"E1","limit_kmh":110,"direction":"12","source":"OpenStreetMap (ODbL)","osm_id":9626165816,"in_relation":false}},{"type":"Feature","geometry":{"type":"Point","coordinates":[101.446618,3.782367]},"properties":{"kind":"speed_camera","country":"MY","road":"Behrang RnR","limit_kmh":110,"direction":"180","source":"OpenStreetMap (ODbL)","osm_id":9667604207,"in_relation":false}},{"type":"Feature","geometry":{"type":"Point","coordinates":[100.546039,5.113542]},"properties":{"kind":"speed_camera","country":"MY","road":"AES Bandar Baharu - Northbound","limit_kmh":110,"direction":"-90","source":"OpenStreetMap (ODbL)","osm_id":10694135234,"in_relation":true}},{"type":"Feature","geometry":{"type":"Point","coordinates":[103.753559,1.527632]},"properties":{"kind":"speed_camera","country":"MY","road":"","limit_kmh":110,"direction":"305","source":"OpenStreetMap (ODbL)","osm_id":10738516098,"in_relation":true}},{"type":"Feature","geometry":{"type":"Point","coordinates":[102.248052,2.212171]},"properties":{"kind":"speed_camera","country":"MY","road":"","limit_kmh":null,"direction":"0","source":"OpenStreetMap (ODbL)","osm_id":11077958600,"in_relation":false}},{"type":"Feature","geometry":{"type":"Point","coordinates":[115.015919,4.759896]},"properties":{"kind":"speed_camera","country":"MY","road":"","limit_kmh":null,"direction":"","source":"OpenStreetMap (ODbL)","osm_id":11594141332,"in_relation":false}},{"type":"Feature","geometry":{"type":"Point","coordinates":[112.132183,2.389666]},"properties":{"kind":"speed_camera","country":"MY","road":"","limit_kmh":90,"direction":"40","source":"OpenStreetMap (ODbL)","osm_id":11789095438,"in_relation":false}},{"type":"Feature","geometry":{"type":"Point","coordinates":[112.130891,2.388556]},"properties":{"kind":"speed_camera","country":"MY","road":"","limit_kmh":90,"direction":"235","source":"OpenStreetMap (ODbL)","osm_id":11789095441,"in_relation":false}},{"type":"Feature","geometry":{"type":"Point","coordinates":[103.753807,1.527634]},"properties":{"kind":"speed_camera","country":"MY","road":"","limit_kmh":110,"direction":"115","source":"OpenStreetMap (ODbL)","osm_id":12109692963,"in_relation":false}},{"type":"Feature","geometry":{"type":"Point","coordinates":[113.996689,4.496371]},"properties":{"kind":"speed_camera","country":"MY","road":"","limit_kmh":90,"direction":"345","source":"OpenStreetMap (ODbL)","osm_id":12203282701,"in_relation":false}},{"type":"Feature","geometry":{"type":"Point","coordinates":[114.016038,4.430062]},"properties":{"kind":"speed_camera","country":"MY","road":"","limit_kmh":90,"direction":"0","source":"OpenStreetMap (ODbL)","osm_id":12203289401,"in_relation":false}},{"type":"Feature","geometry":{"type":"Point","coordinates":[114.016086,4.428233]},"properties":{"kind":"speed_camera","country":"MY","road":"","limit_kmh":90,"direction":"160","source":"OpenStreetMap (ODbL)","osm_id":12203289501,"in_relation":false}},{"type":"Feature","geometry":{"type":"Point","coordinates":[101.585191,2.955488]},"properties":{"kind":"speed_camera","country":"MY","road":"AWAS ELITE Highway - Southbound","limit_kmh":110,"direction":"140","source":"OpenStreetMap (ODbL)","osm_id":12252412840,"in_relation":true}},{"type":"Feature","geometry":{"type":"Point","coordinates":[100.291145,5.40474]},"properties":{"kind":"speed_camera","country":"MY","road":"","limit_kmh":null,"direction":"80","source":"OpenStreetMap (ODbL)","osm_id":12262831423,"in_relation":false}},{"type":"Feature","geometry":{"type":"Point","coordinates":[100.291651,5.404785]},"properties":{"kind":"speed_camera","country":"MY","road":"","limit_kmh":null,"direction":"255","source":"OpenStreetMap (ODbL)","osm_id":12262831424,"in_relation":false}},{"type":"Feature","geometry":{"type":"Point","coordinates":[100.302129,5.414051]},"properties":{"kind":"speed_camera","country":"MY","road":"","limit_kmh":null,"direction":"0","source":"OpenStreetMap (ODbL)","osm_id":12262831425,"in_relation":false}},{"type":"Feature","geometry":{"type":"Point","coordinates":[113.991655,4.346682]},"properties":{"kind":"speed_camera","country":"MY","road":"","limit_kmh":90,"direction":"195","source":"OpenStreetMap (ODbL)","osm_id":12293760591,"in_relation":false}},{"type":"Feature","geometry":{"type":"Point","coordinates":[114.010684,4.412528]},"properties":{"kind":"speed_camera","country":"MY","road":"","limit_kmh":70,"direction":"235","source":"OpenStreetMap (ODbL)","osm_id":12298684951,"in_relation":true}},{"type":"Feature","geometry":{"type":"Point","coordinates":[113.979896,4.363023]},"properties":{"kind":"speed_camera","country":"MY","road":"","limit_kmh":90,"direction":"355","source":"OpenStreetMap (ODbL)","osm_id":12298688533,"in_relation":true}},{"type":"Feature","geometry":{"type":"Point","coordinates":[113.984587,4.381369]},"properties":{"kind":"speed_camera","country":"MY","road":"","limit_kmh":90,"direction":"20","source":"OpenStreetMap (ODbL)","osm_id":12298692901,"in_relation":true}},{"type":"Feature","geometry":{"type":"Point","coordinates":[102.659044,2.158286]},"properties":{"kind":"speed_camera","country":"MY","road":"AWAS Pagoh - Northbound","limit_kmh":110,"direction":"305","source":"OpenStreetMap (ODbL)","osm_id":12383713955,"in_relation":true}},{"type":"Feature","geometry":{"type":"Point","coordinates":[101.421722,3.836063]},"properties":{"kind":"speed_camera","country":"MY","road":"E0001","limit_kmh":110,"direction":"325","source":"OpenStreetMap (ODbL)","osm_id":12383760728,"in_relation":true}},{"type":"Feature","geometry":{"type":"Point","coordinates":[102.698035,2.149796]},"properties":{"kind":"speed_camera","country":"MY","road":"AWAS Pagoh -  Southbound","limit_kmh":110,"direction":"115","source":"OpenStreetMap (ODbL)","osm_id":12389362167,"in_relation":false}},{"type":"Feature","geometry":{"type":"Point","coordinates":[101.519561,3.231031]},"properties":{"kind":"speed_camera","country":"MY","road":"AES GCE - Southbound","limit_kmh":110,"direction":"245","source":"OpenStreetMap (ODbL)","osm_id":12389474319,"in_relation":true}},{"type":"Feature","geometry":{"type":"Point","coordinates":[101.519479,3.231166]},"properties":{"kind":"speed_camera","country":"MY","road":"AES GCE - Northbound","limit_kmh":110,"direction":"60","source":"OpenStreetMap (ODbL)","osm_id":12389474320,"in_relation":true}},{"type":"Feature","geometry":{"type":"Point","coordinates":[101.677228,2.973492]},"properties":{"kind":"speed_camera","country":"MY","road":"AES SKVE","limit_kmh":80,"direction":"100","source":"OpenStreetMap (ODbL)","osm_id":12389480233,"in_relation":true}},{"type":"Feature","geometry":{"type":"Point","coordinates":[103.302647,3.988816]},"properties":{"kind":"speed_camera","country":"MY","road":"AES JPJ Perasing","limit_kmh":110,"direction":"220","source":"OpenStreetMap (ODbL)","osm_id":12389499112,"in_relation":true}},{"type":"Feature","geometry":{"type":"Point","coordinates":[101.869029,2.819879]},"properties":{"kind":"speed_camera","country":"MY","road":"AES Mantin - Southbound","limit_kmh":110,"direction":"125","source":"OpenStreetMap (ODbL)","osm_id":12389516612,"in_relation":true}},{"type":"Feature","geometry":{"type":"Point","coordinates":[101.868698,2.819917]},"properties":{"kind":"speed_camera","country":"MY","road":"AES Mantin - Northbound","limit_kmh":110,"direction":"310","source":"OpenStreetMap (ODbL)","osm_id":12389516613,"in_relation":true}},{"type":"Feature","geometry":{"type":"Point","coordinates":[101.629477,3.117055]},"properties":{"kind":"speed_camera","country":"MY","road":"","limit_kmh":null,"direction":"","source":"OpenStreetMap (ODbL)","osm_id":12485928521,"in_relation":false}},{"type":"Feature","geometry":{"type":"Point","coordinates":[101.629564,3.117615]},"properties":{"kind":"speed_camera","country":"MY","road":"","limit_kmh":null,"direction":"","source":"OpenStreetMap (ODbL)","osm_id":12485928522,"in_relation":false}},{"type":"Feature","geometry":{"type":"Point","coordinates":[102.248009,2.212058]},"properties":{"kind":"speed_camera","country":"MY","road":"","limit_kmh":null,"direction":"","source":"OpenStreetMap (ODbL)","osm_id":12560483103,"in_relation":false}},{"type":"Feature","geometry":{"type":"Point","coordinates":[102.248078,2.212832]},"properties":{"kind":"speed_camera","country":"MY","road":"","limit_kmh":null,"direction":"","source":"OpenStreetMap (ODbL)","osm_id":12560483104,"in_relation":false}},{"type":"Feature","geometry":{"type":"Point","coordinates":[100.312761,5.43312]},"properties":{"kind":"speed_camera","country":"MY","road":"","limit_kmh":null,"direction":"305","source":"OpenStreetMap (ODbL)","osm_id":12786267647,"in_relation":false}},{"type":"Feature","geometry":{"type":"Point","coordinates":[100.338066,5.417183]},"properties":{"kind":"speed_camera","country":"MY","road":"","limit_kmh":null,"direction":"","source":"OpenStreetMap (ODbL)","osm_id":12786267648,"in_relation":false}},{"type":"Feature","geometry":{"type":"Point","coordinates":[101.455561,3.749223]},"properties":{"kind":"speed_camera","country":"MY","road":"","limit_kmh":90,"direction":"","source":"OpenStreetMap (ODbL)","osm_id":13016777226,"in_relation":true}},{"type":"Feature","geometry":{"type":"Point","coordinates":[101.45568,3.748378]},"properties":{"kind":"speed_camera","country":"MY","road":"","limit_kmh":90,"direction":"","source":"OpenStreetMap (ODbL)","osm_id":13016777227,"in_relation":true}},{"type":"Feature","geometry":{"type":"Point","coordinates":[100.507125,5.164697]},"properties":{"kind":"speed_camera","country":"MY","road":"AES Nibong Tebal - Southbound","limit_kmh":110,"direction":"155","source":"OpenStreetMap (ODbL)","osm_id":13110063586,"in_relation":true}},{"type":"Feature","geometry":{"type":"Point","coordinates":[101.54862,3.398073]},"properties":{"kind":"speed_camera","country":"MY","road":"AES Bukit Beruntung - Southbound","limit_kmh":110,"direction":"325","source":"OpenStreetMap (ODbL)","osm_id":13110085647,"in_relation":true}},{"type":"Feature","geometry":{"type":"Point","coordinates":[103.765492,1.498636]},"properties":{"kind":"speed_camera","country":"MY","road":"","limit_kmh":null,"direction":"","source":"OpenStreetMap (ODbL)","osm_id":13313055822,"in_relation":false}},{"type":"Feature","geometry":{"type":"Point","coordinates":[102.253197,2.190483]},"properties":{"kind":"anpr_camera","country":"MY","road":"","limit_kmh":null,"direction":"","source":"OpenStreetMap (ODbL)","osm_id":13594379737,"in_relation":false}},{"type":"Feature","geometry":{"type":"Point","coordinates":[102.253166,2.190412]},"properties":{"kind":"anpr_camera","country":"MY","road":"","limit_kmh":null,"direction":"","source":"OpenStreetMap (ODbL)","osm_id":13594379738,"in_relation":false}},{"type":"Feature","geometry":{"type":"Point","coordinates":[102.253082,2.19046]},"properties":{"kind":"anpr_camera","country":"MY","road":"","limit_kmh":null,"direction":"","source":"OpenStreetMap (ODbL)","osm_id":13594379741,"in_relation":false}},{"type":"Feature","geometry":{"type":"Point","coordinates":[100.295382,5.464914]},"properties":{"kind":"speed_camera","country":"MY","road":"","limit_kmh":50,"direction":"","source":"OpenStreetMap (ODbL)","osm_id":13858003537,"in_relation":true}},{"type":"Feature","geometry":{"type":"Point","coordinates":[100.462098,5.236124]},"properties":{"kind":"anpr_camera","country":"MY","road":"","limit_kmh":null,"direction":"50","source":"OpenStreetMap (ODbL)","osm_id":14067318042,"in_relation":false}},{"type":"Feature","geometry":{"type":"Point","coordinates":[18.46568,-33.95246]},"properties":{"kind":"speed_camera","country":"ZA","road":"","limit_kmh":80,"direction":"","source":"OpenStreetMap (ODbL)","osm_id":25383205,"in_relation":true}},{"type":"Feature","geometry":{"type":"Point","coordinates":[18.478197,-33.96005]},"properties":{"kind":"speed_camera","country":"ZA","road":"","limit_kmh":60,"direction":"","source":"OpenStreetMap (ODbL)","osm_id":25721754,"in_relation":false}},{"type":"Feature","geometry":{"type":"Point","coordinates":[18.543677,-33.927174]},"properties":{"kind":"speed_camera","country":"ZA","road":"","limit_kmh":60,"direction":"","source":"OpenStreetMap (ODbL)","osm_id":25878059,"in_relation":false}},{"type":"Feature","geometry":{"type":"Point","coordinates":[18.487432,-34.023021]},"properties":{"kind":"speed_camera","country":"ZA","road":"","limit_kmh":70,"direction":"","source":"OpenStreetMap (ODbL)","osm_id":26127923,"in_relation":false}},{"type":"Feature","geometry":{"type":"Point","coordinates":[22.557756,-32.362561]},"properties":{"kind":"speed_camera","country":"ZA","road":"","limit_kmh":60,"direction":"","source":"OpenStreetMap (ODbL)","osm_id":26925593,"in_relation":false}},{"type":"Feature","geometry":{"type":"Point","coordinates":[22.558079,-32.362646]},"properties":{"kind":"speed_camera","country":"ZA","road":"","limit_kmh":60,"direction":"","source":"OpenStreetMap (ODbL)","osm_id":26925594,"in_relation":false}},{"type":"Feature","geometry":{"type":"Point","coordinates":[18.918799,-34.13401]},"properties":{"kind":"speed_camera","country":"ZA","road":"","limit_kmh":null,"direction":"","source":"OpenStreetMap (ODbL)","osm_id":30492669,"in_relation":true}},{"type":"Feature","geometry":{"type":"Point","coordinates":[18.947323,-34.152278]},"properties":{"kind":"speed_camera","country":"ZA","road":"","limit_kmh":100,"direction":"","source":"OpenStreetMap (ODbL)","osm_id":30502277,"in_relation":true}},{"type":"Feature","geometry":{"type":"Point","coordinates":[18.726423,-33.451591]},"properties":{"kind":"speed_camera","country":"ZA","road":"","limit_kmh":60,"direction":"","source":"OpenStreetMap (ODbL)","osm_id":60163763,"in_relation":false}},{"type":"Feature","geometry":{"type":"Point","coordinates":[20.068772,-33.306387]},"properties":{"kind":"speed_camera","country":"ZA","road":"","limit_kmh":120,"direction":"","source":"OpenStreetMap (ODbL)","osm_id":60984279,"in_relation":true}},{"type":"Feature","geometry":{"type":"Point","coordinates":[28.015529,-26.172552]},"properties":{"kind":"speed_camera","country":"ZA","road":"","limit_kmh":null,"direction":"","source":"OpenStreetMap (ODbL)","osm_id":111055359,"in_relation":false}},{"type":"Feature","geometry":{"type":"Point","coordinates":[28.032359,-26.173281]},"properties":{"kind":"speed_camera","country":"ZA","road":"","limit_kmh":null,"direction":"","source":"OpenStreetMap (ODbL)","osm_id":197301880,"in_relation":false}},{"type":"Feature","geometry":{"type":"Point","coordinates":[26.170956,-29.144989]},"properties":{"kind":"speed_camera","country":"ZA","road":"","limit_kmh":null,"direction":"","source":"OpenStreetMap (ODbL)","osm_id":267021323,"in_relation":false}},{"type":"Feature","geometry":{"type":"Point","coordinates":[19.15615,-34.208573]},"properties":{"kind":"speed_camera","country":"ZA","road":"","limit_kmh":100,"direction":"","source":"OpenStreetMap (ODbL)","osm_id":268394575,"in_relation":true}},{"type":"Feature","geometry":{"type":"Point","coordinates":[30.985925,-25.380367]},"properties":{"kind":"speed_camera","country":"ZA","road":"","limit_kmh":null,"direction":"","source":"OpenStreetMap (ODbL)","osm_id":271441207,"in_relation":false}},{"type":"Feature","geometry":{"type":"Point","coordinates":[30.962132,-25.490438]},"properties":{"kind":"speed_camera","country":"ZA","road":"","limit_kmh":null,"direction":"","source":"OpenStreetMap (ODbL)","osm_id":271448797,"in_relation":false}},{"type":"Feature","geometry":{"type":"Point","coordinates":[18.437804,-33.93096]},"properties":{"kind":"speed_camera","country":"ZA","road":"","limit_kmh":80,"direction":"","source":"OpenStreetMap (ODbL)","osm_id":291433947,"in_relation":true}},{"type":"Feature","geometry":{"type":"Point","coordinates":[28.058866,-26.087012]},"properties":{"kind":"speed_camera","country":"ZA","road":"","limit_kmh":null,"direction":"","source":"OpenStreetMap (ODbL)","osm_id":410272602,"in_relation":false}},{"type":"Feature","geometry":{"type":"Point","coordinates":[29.031712,-26.021756]},"properties":{"kind":"speed_camera","country":"ZA","road":"","limit_kmh":null,"direction":"","source":"OpenStreetMap (ODbL)","osm_id":412189596,"in_relation":false}},{"type":"Feature","geometry":{"type":"Point","coordinates":[30.965475,-25.43577]},"properties":{"kind":"speed_camera","country":"ZA","road":"","limit_kmh":null,"direction":"","source":"OpenStreetMap (ODbL)","osm_id":412201061,"in_relation":false}},{"type":"Feature","geometry":{"type":"Point","coordinates":[30.965045,-25.428898]},"properties":{"kind":"speed_camera","country":"ZA","road":"","limit_kmh":null,"direction":"","source":"OpenStreetMap (ODbL)","osm_id":412201062,"in_relation":false}},{"type":"Feature","geometry":{"type":"Point","coordinates":[28.03725,-26.10068]},"properties":{"kind":"speed_camera","country":"ZA","road":"","limit_kmh":null,"direction":"","source":"OpenStreetMap (ODbL)","osm_id":414056590,"in_relation":false}},{"type":"Feature","geometry":{"type":"Point","coordinates":[31.000813,-25.338085]},"properties":{"kind":"speed_camera","country":"ZA","road":"","limit_kmh":null,"direction":"","source":"OpenStreetMap (ODbL)","osm_id":414085917,"in_relation":false}},{"type":"Feature","geometry":{"type":"Point","coordinates":[18.632466,-33.814704]},"properties":{"kind":"speed_camera","country":"ZA","road":"","limit_kmh":60,"direction":"","source":"OpenStreetMap (ODbL)","osm_id":529415396,"in_relation":false}},{"type":"Feature","geometry":{"type":"Point","coordinates":[18.448486,-33.976663]},"properties":{"kind":"speed_camera","country":"ZA","road":"","limit_kmh":60,"direction":"","source":"OpenStreetMap (ODbL)","osm_id":529474902,"in_relation":false}},{"type":"Feature","geometry":{"type":"Point","coordinates":[18.689951,-34.02601]},"properties":{"kind":"speed_camera","country":"ZA","road":"","limit_kmh":120,"direction":"","source":"OpenStreetMap (ODbL)","osm_id":535230854,"in_relation":false}},{"type":"Feature","geometry":{"type":"Point","coordinates":[18.686923,-33.937945]},"properties":{"kind":"speed_camera","country":"ZA","road":"","limit_kmh":60,"direction":"","source":"OpenStreetMap (ODbL)","osm_id":535230855,"in_relation":false}},{"type":"Feature","geometry":{"type":"Point","coordinates":[18.73192,-34.006847]},"properties":{"kind":"speed_camera","country":"ZA","road":"","limit_kmh":60,"direction":"","source":"OpenStreetMap (ODbL)","osm_id":535230858,"in_relation":false}},{"type":"Feature","geometry":{"type":"Point","coordinates":[18.797465,-33.953283]},"properties":{"kind":"speed_camera","country":"ZA","road":"","limit_kmh":null,"direction":"","source":"OpenStreetMap (ODbL)","osm_id":535230860,"in_relation":false}},{"type":"Feature","geometry":{"type":"Point","coordinates":[18.673291,-33.9176]},"properties":{"kind":"speed_camera","country":"ZA","road":"","limit_kmh":60,"direction":"","source":"OpenStreetMap (ODbL)","osm_id":535230865,"in_relation":false}},{"type":"Feature","geometry":{"type":"Point","coordinates":[22.546592,-33.989178]},"properties":{"kind":"speed_camera","country":"ZA","road":"","limit_kmh":60,"direction":"","source":"OpenStreetMap (ODbL)","osm_id":589028476,"in_relation":false}},{"type":"Feature","geometry":{"type":"Point","coordinates":[18.849311,-33.914384]},"properties":{"kind":"speed_camera","country":"ZA","road":"","limit_kmh":null,"direction":"","source":"OpenStreetMap (ODbL)","osm_id":615749416,"in_relation":false}},{"type":"Feature","geometry":{"type":"Point","coordinates":[30.995775,-25.490988]},"properties":{"kind":"speed_camera","country":"ZA","road":"","limit_kmh":null,"direction":"","source":"OpenStreetMap (ODbL)","osm_id":643081100,"in_relation":false}},{"type":"Feature","geometry":{"type":"Point","coordinates":[30.448551,-30.750965]},"properties":{"kind":"speed_camera","country":"ZA","road":"","limit_kmh":60,"direction":"","source":"OpenStreetMap (ODbL)","osm_id":699694001,"in_relation":true}},{"type":"Feature","geometry":{"type":"Point","coordinates":[29.545602,-28.813466]},"properties":{"kind":"speed_camera","country":"ZA","road":"","limit_kmh":null,"direction":"","source":"OpenStreetMap (ODbL)","osm_id":840557562,"in_relation":false}},{"type":"Feature","geometry":{"type":"Point","coordinates":[28.14081,-25.878848]},"properties":{"kind":"speed_camera","country":"ZA","road":"","limit_kmh":null,"direction":"","source":"OpenStreetMap (ODbL)","osm_id":959173139,"in_relation":false}},{"type":"Feature","geometry":{"type":"Point","coordinates":[18.489897,-34.029149]},"properties":{"kind":"speed_camera","country":"ZA","road":"","limit_kmh":60,"direction":"","source":"OpenStreetMap (ODbL)","osm_id":1181120894,"in_relation":false}},{"type":"Feature","geometry":{"type":"Point","coordinates":[18.488231,-34.054185]},"properties":{"kind":"speed_camera","country":"ZA","road":"","limit_kmh":70,"direction":"","source":"OpenStreetMap (ODbL)","osm_id":1194115070,"in_relation":false}},{"type":"Feature","geometry":{"type":"Point","coordinates":[18.484863,-34.013277]},"properties":{"kind":"speed_camera","country":"ZA","road":"","limit_kmh":60,"direction":"","source":"OpenStreetMap (ODbL)","osm_id":1194235184,"in_relation":false}},{"type":"Feature","geometry":{"type":"Point","coordinates":[18.508843,-33.896068]},"properties":{"kind":"speed_camera","country":"ZA","road":"","limit_kmh":60,"direction":"","source":"OpenStreetMap (ODbL)","osm_id":1200320027,"in_relation":false}},{"type":"Feature","geometry":{"type":"Point","coordinates":[19.464198,-33.626016]},"properties":{"kind":"speed_camera","country":"ZA","road":"","limit_kmh":80,"direction":"","source":"OpenStreetMap (ODbL)","osm_id":1205465389,"in_relation":false}},{"type":"Feature","geometry":{"type":"Point","coordinates":[23.940852,-31.411619]},"properties":{"kind":"speed_camera","country":"ZA","road":"","limit_kmh":null,"direction":"","source":"OpenStreetMap (ODbL)","osm_id":1205595848,"in_relation":false}},{"type":"Feature","geometry":{"type":"Point","coordinates":[24.442335,-31.071814]},"properties":{"kind":"speed_camera","country":"ZA","road":"","limit_kmh":60,"direction":"","source":"OpenStreetMap (ODbL)","osm_id":1205625953,"in_relation":false}},{"type":"Feature","geometry":{"type":"Point","coordinates":[28.054389,-26.212775]},"properties":{"kind":"speed_camera","country":"ZA","road":"","limit_kmh":null,"direction":"","source":"OpenStreetMap (ODbL)","osm_id":1676937064,"in_relation":false}},{"type":"Feature","geometry":{"type":"Point","coordinates":[28.035137,-26.13486]},"properties":{"kind":"speed_camera","country":"ZA","road":"","limit_kmh":null,"direction":"","source":"OpenStreetMap (ODbL)","osm_id":1859363816,"in_relation":false}},{"type":"Feature","geometry":{"type":"Point","coordinates":[28.03553,-26.132235]},"properties":{"kind":"speed_camera","country":"ZA","road":"","limit_kmh":null,"direction":"","source":"OpenStreetMap (ODbL)","osm_id":1859364027,"in_relation":false}},{"type":"Feature","geometry":{"type":"Point","coordinates":[19.675567,-33.48279]},"properties":{"kind":"speed_camera","country":"ZA","road":"","limit_kmh":80,"direction":"","source":"OpenStreetMap (ODbL)","osm_id":2193040508,"in_relation":false}},{"type":"Feature","geometry":{"type":"Point","coordinates":[22.448924,-33.968772]},"properties":{"kind":"speed_camera","country":"ZA","road":"","limit_kmh":60,"direction":"","source":"OpenStreetMap (ODbL)","osm_id":2233742929,"in_relation":false}},{"type":"Feature","geometry":{"type":"Point","coordinates":[22.941298,-34.030913]},"properties":{"kind":"speed_camera","country":"ZA","road":"","limit_kmh":null,"direction":"","source":"OpenStreetMap (ODbL)","osm_id":2453821302,"in_relation":false}},{"type":"Feature","geometry":{"type":"Point","coordinates":[18.666442,-33.870032]},"properties":{"kind":"speed_camera","country":"ZA","road":"","limit_kmh":null,"direction":"","source":"OpenStreetMap (ODbL)","osm_id":2706598625,"in_relation":false}},{"type":"Feature","geometry":{"type":"Point","coordinates":[18.66324,-33.881758]},"properties":{"kind":"speed_camera","country":"ZA","road":"","limit_kmh":60,"direction":"","source":"OpenStreetMap (ODbL)","osm_id":2706679272,"in_relation":false}},{"type":"Feature","geometry":{"type":"Point","coordinates":[22.989837,-34.035116]},"properties":{"kind":"speed_camera","country":"ZA","road":"","limit_kmh":null,"direction":"","source":"OpenStreetMap (ODbL)","osm_id":2939063900,"in_relation":false}},{"type":"Feature","geometry":{"type":"Point","coordinates":[18.398977,-33.906595]},"properties":{"kind":"speed_camera","country":"ZA","road":"","limit_kmh":60,"direction":"290","source":"OpenStreetMap (ODbL)","osm_id":3089436963,"in_relation":false}},{"type":"Feature","geometry":{"type":"Point","coordinates":[18.396535,-33.907086]},"properties":{"kind":"speed_camera","country":"ZA","road":"","limit_kmh":50,"direction":"75","source":"OpenStreetMap (ODbL)","osm_id":3089436964,"in_relation":false}},{"type":"Feature","geometry":{"type":"Point","coordinates":[18.614402,-33.841712]},"properties":{"kind":"speed_camera","country":"ZA","road":"","limit_kmh":80,"direction":"-45","source":"OpenStreetMap (ODbL)","osm_id":3163013327,"in_relation":false}},{"type":"Feature","geometry":{"type":"Point","coordinates":[18.632565,-33.857069]},"properties":{"kind":"speed_camera","country":"ZA","road":"","limit_kmh":60,"direction":"","source":"OpenStreetMap (ODbL)","osm_id":3163013328,"in_relation":false}},{"type":"Feature","geometry":{"type":"Point","coordinates":[18.666495,-33.870829]},"properties":{"kind":"speed_camera","country":"ZA","road":"","limit_kmh":60,"direction":"","source":"OpenStreetMap (ODbL)","osm_id":3163013329,"in_relation":false}},{"type":"Feature","geometry":{"type":"Point","coordinates":[18.906962,-34.130045]},"properties":{"kind":"speed_camera","country":"ZA","road":"","limit_kmh":80,"direction":"","source":"OpenStreetMap (ODbL)","osm_id":3163013330,"in_relation":false}},{"type":"Feature","geometry":{"type":"Point","coordinates":[18.822321,-34.303285]},"properties":{"kind":"speed_camera","country":"ZA","road":"","limit_kmh":60,"direction":"","source":"OpenStreetMap (ODbL)","osm_id":3163013331,"in_relation":false}},{"type":"Feature","geometry":{"type":"Point","coordinates":[18.852402,-34.101667]},"properties":{"kind":"speed_camera","country":"ZA","road":"","limit_kmh":null,"direction":"","source":"OpenStreetMap (ODbL)","osm_id":3195707091,"in_relation":false}},{"type":"Feature","geometry":{"type":"Point","coordinates":[22.065749,-34.181953]},"properties":{"kind":"speed_camera","country":"ZA","road":"","limit_kmh":null,"direction":"","source":"OpenStreetMap (ODbL)","osm_id":3415697463,"in_relation":false}},{"type":"Feature","geometry":{"type":"Point","coordinates":[18.826337,-33.996715]},"properties":{"kind":"speed_camera","country":"ZA","road":"","limit_kmh":80,"direction":"","source":"OpenStreetMap (ODbL)","osm_id":3581166393,"in_relation":false}},{"type":"Feature","geometry":{"type":"Point","coordinates":[18.825999,-33.997044]},"properties":{"kind":"speed_camera","country":"ZA","road":"","limit_kmh":80,"direction":"","source":"OpenStreetMap (ODbL)","osm_id":3581166394,"in_relation":false}},{"type":"Feature","geometry":{"type":"Point","coordinates":[18.437851,-33.931177]},"properties":{"kind":"speed_camera","country":"ZA","road":"","limit_kmh":80,"direction":"","source":"OpenStreetMap (ODbL)","osm_id":3643000149,"in_relation":true}},{"type":"Feature","geometry":{"type":"Point","coordinates":[18.469982,-33.94561]},"properties":{"kind":"speed_camera","country":"ZA","road":"","limit_kmh":80,"direction":"","source":"OpenStreetMap (ODbL)","osm_id":3643000164,"in_relation":true}},{"type":"Feature","geometry":{"type":"Point","coordinates":[18.469645,-33.945567]},"properties":{"kind":"speed_camera","country":"ZA","road":"","limit_kmh":80,"direction":"","source":"OpenStreetMap (ODbL)","osm_id":3643000165,"in_relation":true}},{"type":"Feature","geometry":{"type":"Point","coordinates":[18.465848,-33.952376]},"properties":{"kind":"speed_camera","country":"ZA","road":"","limit_kmh":80,"direction":"","source":"OpenStreetMap (ODbL)","osm_id":3643000166,"in_relation":true}},{"type":"Feature","geometry":{"type":"Point","coordinates":[19.023659,-33.743844]},"properties":{"kind":"speed_camera","country":"ZA","road":"","limit_kmh":60,"direction":"","source":"OpenStreetMap (ODbL)","osm_id":3675136246,"in_relation":false}},{"type":"Feature","geometry":{"type":"Point","coordinates":[18.498537,-33.989746]},"properties":{"kind":"speed_camera","country":"ZA","road":"","limit_kmh":null,"direction":"","source":"OpenStreetMap (ODbL)","osm_id":3733155156,"in_relation":false}},{"type":"Feature","geometry":{"type":"Point","coordinates":[18.489128,-34.012639]},"properties":{"kind":"speed_camera","country":"ZA","road":"","limit_kmh":60,"direction":"","source":"OpenStreetMap (ODbL)","osm_id":3754849149,"in_relation":false}},{"type":"Feature","geometry":{"type":"Point","coordinates":[18.47955,-34.075105]},"properties":{"kind":"speed_camera","country":"ZA","road":"","limit_kmh":null,"direction":"","source":"OpenStreetMap (ODbL)","osm_id":3909713012,"in_relation":false}},{"type":"Feature","geometry":{"type":"Point","coordinates":[18.479386,-34.07511]},"properties":{"kind":"speed_camera","country":"ZA","road":"","limit_kmh":null,"direction":"","source":"OpenStreetMap (ODbL)","osm_id":3909713013,"in_relation":false}},{"type":"Feature","geometry":{"type":"Point","coordinates":[18.400776,-33.936076]},"properties":{"kind":"speed_camera","country":"ZA","road":"","limit_kmh":null,"direction":"","source":"OpenStreetMap (ODbL)","osm_id":3936325938,"in_relation":false}},{"type":"Feature","geometry":{"type":"Point","coordinates":[18.762565,-32.912186]},"properties":{"kind":"speed_camera","country":"ZA","road":"","limit_kmh":80,"direction":"","source":"OpenStreetMap (ODbL)","osm_id":4083617660,"in_relation":false}},{"type":"Feature","geometry":{"type":"Point","coordinates":[28.313606,-25.734752]},"properties":{"kind":"speed_camera","country":"ZA","road":"","limit_kmh":null,"direction":"","source":"OpenStreetMap (ODbL)","osm_id":4143251155,"in_relation":false}},{"type":"Feature","geometry":{"type":"Point","coordinates":[20.810328,-33.183808]},"properties":{"kind":"speed_camera","country":"ZA","road":"","limit_kmh":120,"direction":"","source":"OpenStreetMap (ODbL)","osm_id":4280648946,"in_relation":true}},{"type":"Feature","geometry":{"type":"Point","coordinates":[18.503798,-33.893257]},"properties":{"kind":"speed_camera","country":"ZA","road":"","limit_kmh":60,"direction":"","source":"OpenStreetMap (ODbL)","osm_id":4289682797,"in_relation":false}},{"type":"Feature","geometry":{"type":"Point","coordinates":[20.237741,-33.260171]},"properties":{"kind":"speed_camera","country":"ZA","road":"","limit_kmh":120,"direction":"","source":"OpenStreetMap (ODbL)","osm_id":4296879994,"in_relation":true}},{"type":"Feature","geometry":{"type":"Point","coordinates":[29.207597,-26.505016]},"properties":{"kind":"speed_camera","country":"ZA","road":"","limit_kmh":60,"direction":"","source":"OpenStreetMap (ODbL)","osm_id":4301111937,"in_relation":false}},{"type":"Feature","geometry":{"type":"Point","coordinates":[18.646197,-33.871835]},"properties":{"kind":"speed_camera","country":"ZA","road":"","limit_kmh":60,"direction":"","source":"OpenStreetMap (ODbL)","osm_id":4524246874,"in_relation":false}},{"type":"Feature","geometry":{"type":"Point","coordinates":[18.662778,-33.881002]},"properties":{"kind":"speed_camera","country":"ZA","road":"","limit_kmh":60,"direction":"","source":"OpenStreetMap (ODbL)","osm_id":4524317787,"in_relation":false}},{"type":"Feature","geometry":{"type":"Point","coordinates":[18.578741,-33.666787]},"properties":{"kind":"speed_camera","country":"ZA","road":"","limit_kmh":70,"direction":"","source":"OpenStreetMap (ODbL)","osm_id":4790416603,"in_relation":false}},{"type":"Feature","geometry":{"type":"Point","coordinates":[28.034935,-26.135652]},"properties":{"kind":"speed_camera","country":"ZA","road":"","limit_kmh":null,"direction":"","source":"OpenStreetMap (ODbL)","osm_id":4941891523,"in_relation":false}},{"type":"Feature","geometry":{"type":"Point","coordinates":[28.066203,-26.100843]},"properties":{"kind":"speed_camera","country":"ZA","road":"","limit_kmh":null,"direction":"","source":"OpenStreetMap (ODbL)","osm_id":4971221920,"in_relation":false}},{"type":"Feature","geometry":{"type":"Point","coordinates":[21.244789,-34.088946]},"properties":{"kind":"speed_camera","country":"ZA","road":"","limit_kmh":80,"direction":"300","source":"OpenStreetMap (ODbL)","osm_id":5104756913,"in_relation":false}},{"type":"Feature","geometry":{"type":"Point","coordinates":[22.475443,-33.995804]},"properties":{"kind":"speed_camera","country":"ZA","road":"","limit_kmh":120,"direction":"","source":"OpenStreetMap (ODbL)","osm_id":5111046132,"in_relation":false}},{"type":"Feature","geometry":{"type":"Point","coordinates":[22.475802,-33.99595]},"properties":{"kind":"speed_camera","country":"ZA","road":"","limit_kmh":120,"direction":"","source":"OpenStreetMap (ODbL)","osm_id":5111046143,"in_relation":false}},{"type":"Feature","geometry":{"type":"Point","coordinates":[18.506621,-33.889858]},"properties":{"kind":"speed_camera","country":"ZA","road":"","limit_kmh":60,"direction":"","source":"OpenStreetMap (ODbL)","osm_id":5128540557,"in_relation":false}},{"type":"Feature","geometry":{"type":"Point","coordinates":[18.492345,-33.848026]},"properties":{"kind":"speed_camera","country":"ZA","road":"","limit_kmh":70,"direction":"","source":"OpenStreetMap (ODbL)","osm_id":5128540558,"in_relation":false}},{"type":"Feature","geometry":{"type":"Point","coordinates":[22.521586,-33.993717]},"properties":{"kind":"speed_camera","country":"ZA","road":"","limit_kmh":60,"direction":"","source":"OpenStreetMap (ODbL)","osm_id":5173576701,"in_relation":false}},{"type":"Feature","geometry":{"type":"Point","coordinates":[22.571584,-33.994505]},"properties":{"kind":"speed_camera","country":"ZA","road":"","limit_kmh":60,"direction":"","source":"OpenStreetMap (ODbL)","osm_id":5181544079,"in_relation":false}},{"type":"Feature","geometry":{"type":"Point","coordinates":[23.358691,-34.049393]},"properties":{"kind":"speed_camera","country":"ZA","road":"","limit_kmh":60,"direction":"","source":"OpenStreetMap (ODbL)","osm_id":5204794395,"in_relation":false}},{"type":"Feature","geometry":{"type":"Point","coordinates":[30.50004,-24.963534]},"properties":{"kind":"speed_camera","country":"ZA","road":"","limit_kmh":null,"direction":"","source":"OpenStreetMap (ODbL)","osm_id":5387298026,"in_relation":false}},{"type":"Feature","geometry":{"type":"Point","coordinates":[30.450854,-26.810899]},"properties":{"kind":"speed_camera","country":"ZA","road":"","limit_kmh":null,"direction":"","source":"OpenStreetMap (ODbL)","osm_id":5415255737,"in_relation":false}},{"type":"Feature","geometry":{"type":"Point","coordinates":[31.56216,-27.383967]},"properties":{"kind":"speed_camera","country":"ZA","road":"","limit_kmh":null,"direction":"","source":"OpenStreetMap (ODbL)","osm_id":5417237921,"in_relation":false}},{"type":"Feature","geometry":{"type":"Point","coordinates":[18.500269,-33.861749]},"properties":{"kind":"speed_camera","country":"ZA","road":"","limit_kmh":60,"direction":"","source":"OpenStreetMap (ODbL)","osm_id":5846225459,"in_relation":false}},{"type":"Feature","geometry":{"type":"Point","coordinates":[18.49975,-33.861972]},"properties":{"kind":"speed_camera","country":"ZA","road":"","limit_kmh":60,"direction":"","source":"OpenStreetMap (ODbL)","osm_id":5846225460,"in_relation":false}},{"type":"Feature","geometry":{"type":"Point","coordinates":[18.610732,-33.840854]},"properties":{"kind":"speed_camera","country":"ZA","road":"","limit_kmh":80,"direction":"142","source":"OpenStreetMap (ODbL)","osm_id":5860302893,"in_relation":false}},{"type":"Feature","geometry":{"type":"Point","coordinates":[18.533542,-33.899056]},"properties":{"kind":"speed_camera","country":"ZA","road":"","limit_kmh":60,"direction":"","source":"OpenStreetMap (ODbL)","osm_id":5887049613,"in_relation":false}},{"type":"Feature","geometry":{"type":"Point","coordinates":[18.533378,-33.89955]},"properties":{"kind":"speed_camera","country":"ZA","road":"","limit_kmh":60,"direction":"","source":"OpenStreetMap (ODbL)","osm_id":5887049614,"in_relation":false}},{"type":"Feature","geometry":{"type":"Point","coordinates":[18.540283,-33.914069]},"properties":{"kind":"speed_camera","country":"ZA","road":"","limit_kmh":60,"direction":"","source":"OpenStreetMap (ODbL)","osm_id":5887049615,"in_relation":false}},{"type":"Feature","geometry":{"type":"Point","coordinates":[18.543397,-33.923169]},"properties":{"kind":"speed_camera","country":"ZA","road":"","limit_kmh":60,"direction":"","source":"OpenStreetMap (ODbL)","osm_id":5887049616,"in_relation":false}},{"type":"Feature","geometry":{"type":"Point","coordinates":[18.542884,-33.944295]},"properties":{"kind":"speed_camera","country":"ZA","road":"","limit_kmh":60,"direction":"","source":"OpenStreetMap (ODbL)","osm_id":5887049618,"in_relation":false}},{"type":"Feature","geometry":{"type":"Point","coordinates":[18.542701,-33.944969]},"properties":{"kind":"speed_camera","country":"ZA","road":"","limit_kmh":60,"direction":"","source":"OpenStreetMap (ODbL)","osm_id":5887049619,"in_relation":false}},{"type":"Feature","geometry":{"type":"Point","coordinates":[18.538713,-33.968304]},"properties":{"kind":"speed_camera","country":"ZA","road":"","limit_kmh":60,"direction":"","source":"OpenStreetMap (ODbL)","osm_id":5887049620,"in_relation":false}},{"type":"Feature","geometry":{"type":"Point","coordinates":[18.53891,-33.968782]},"properties":{"kind":"speed_camera","country":"ZA","road":"","limit_kmh":60,"direction":"","source":"OpenStreetMap (ODbL)","osm_id":5887049621,"in_relation":false}},{"type":"Feature","geometry":{"type":"Point","coordinates":[18.537967,-33.974634]},"properties":{"kind":"speed_camera","country":"ZA","road":"","limit_kmh":80,"direction":"","source":"OpenStreetMap (ODbL)","osm_id":5887049622,"in_relation":false}},{"type":"Feature","geometry":{"type":"Point","coordinates":[18.528106,-33.966805]},"properties":{"kind":"speed_camera","country":"ZA","road":"","limit_kmh":60,"direction":"","source":"OpenStreetMap (ODbL)","osm_id":5887049623,"in_relation":false}},{"type":"Feature","geometry":{"type":"Point","coordinates":[18.508353,-33.961424]},"properties":{"kind":"speed_camera","country":"ZA","road":"","limit_kmh":60,"direction":"","source":"OpenStreetMap (ODbL)","osm_id":5887049624,"in_relation":false}},{"type":"Feature","geometry":{"type":"Point","coordinates":[18.507826,-33.961444]},"properties":{"kind":"speed_camera","country":"ZA","road":"","limit_kmh":60,"direction":"","source":"OpenStreetMap (ODbL)","osm_id":5887049625,"in_relation":false}},{"type":"Feature","geometry":{"type":"Point","coordinates":[18.507616,-33.96106]},"properties":{"kind":"speed_camera","country":"ZA","road":"","limit_kmh":60,"direction":"","source":"OpenStreetMap (ODbL)","osm_id":5887049626,"in_relation":false}},{"type":"Feature","geometry":{"type":"Point","coordinates":[18.486551,-33.951815]},"properties":{"kind":"speed_camera","country":"ZA","road":"","limit_kmh":60,"direction":"","source":"OpenStreetMap (ODbL)","osm_id":5887049627,"in_relation":false}},{"type":"Feature","geometry":{"type":"Point","coordinates":[18.485708,-33.960147]},"properties":{"kind":"speed_camera","country":"ZA","road":"","limit_kmh":60,"direction":"","source":"OpenStreetMap (ODbL)","osm_id":5887049628,"in_relation":false}},{"type":"Feature","geometry":{"type":"Point","coordinates":[18.490003,-34.028797]},"properties":{"kind":"speed_camera","country":"ZA","road":"","limit_kmh":70,"direction":"","source":"OpenStreetMap (ODbL)","osm_id":5895924332,"in_relation":false}},{"type":"Feature","geometry":{"type":"Point","coordinates":[18.491881,-34.036557]},"properties":{"kind":"speed_camera","country":"ZA","road":"","limit_kmh":70,"direction":"","source":"OpenStreetMap (ODbL)","osm_id":5895924333,"in_relation":false}},{"type":"Feature","geometry":{"type":"Point","coordinates":[18.487865,-34.054567]},"properties":{"kind":"speed_camera","country":"ZA","road":"","limit_kmh":60,"direction":"","source":"OpenStreetMap (ODbL)","osm_id":5895924334,"in_relation":false}},{"type":"Feature","geometry":{"type":"Point","coordinates":[18.458855,-34.065657]},"properties":{"kind":"speed_camera","country":"ZA","road":"","limit_kmh":60,"direction":"","source":"OpenStreetMap (ODbL)","osm_id":5895924335,"in_relation":false}},{"type":"Feature","geometry":{"type":"Point","coordinates":[18.423529,-33.91452]},"properties":{"kind":"speed_camera","country":"ZA","road":"","limit_kmh":60,"direction":"","source":"OpenStreetMap (ODbL)","osm_id":5895924336,"in_relation":false}},{"type":"Feature","geometry":{"type":"Point","coordinates":[18.422734,-33.915728]},"properties":{"kind":"speed_camera","country":"ZA","road":"","limit_kmh":60,"direction":"","source":"OpenStreetMap (ODbL)","osm_id":5895924337,"in_relation":false}},{"type":"Feature","geometry":{"type":"Point","coordinates":[18.419878,-33.917903]},"properties":{"kind":"speed_camera","country":"ZA","road":"","limit_kmh":60,"direction":"","source":"OpenStreetMap (ODbL)","osm_id":5895924338,"in_relation":false}},{"type":"Feature","geometry":{"type":"Point","coordinates":[18.592206,-33.999697]},"properties":{"kind":"speed_camera","country":"ZA","road":"","limit_kmh":60,"direction":"","source":"OpenStreetMap (ODbL)","osm_id":5895924339,"in_relation":false}},{"type":"Feature","geometry":{"type":"Point","coordinates":[18.522075,-34.001913]},"properties":{"kind":"speed_camera","country":"ZA","road":"","limit_kmh":60,"direction":"","source":"OpenStreetMap (ODbL)","osm_id":5895924340,"in_relation":false}},{"type":"Feature","geometry":{"type":"Point","coordinates":[18.495141,-33.972607]},"properties":{"kind":"speed_camera","country":"ZA","road":"","limit_kmh":60,"direction":"","source":"OpenStreetMap (ODbL)","osm_id":5895924341,"in_relation":false}},{"type":"Feature","geometry":{"type":"Point","coordinates":[18.574018,-34.023836]},"properties":{"kind":"speed_camera","country":"ZA","road":"","limit_kmh":60,"direction":"","source":"OpenStreetMap (ODbL)","osm_id":5895924342,"in_relation":false}},{"type":"Feature","geometry":{"type":"Point","coordinates":[18.574305,-34.024576]},"properties":{"kind":"speed_camera","country":"ZA","road":"","limit_kmh":60,"direction":"","source":"OpenStreetMap (ODbL)","osm_id":5895924343,"in_relation":false}},{"type":"Feature","geometry":{"type":"Point","coordinates":[18.610564,-34.026947]},"properties":{"kind":"speed_camera","country":"ZA","road":"","limit_kmh":60,"direction":"","source":"OpenStreetMap (ODbL)","osm_id":5895924344,"in_relation":false}},{"type":"Feature","geometry":{"type":"Point","coordinates":[18.610653,-34.027627]},"properties":{"kind":"speed_camera","country":"ZA","road":"","limit_kmh":60,"direction":"","source":"OpenStreetMap (ODbL)","osm_id":5895924345,"in_relation":false}},{"type":"Feature","geometry":{"type":"Point","coordinates":[18.516799,-33.854367]},"properties":{"kind":"speed_camera","country":"ZA","road":"","limit_kmh":60,"direction":"","source":"OpenStreetMap (ODbL)","osm_id":5895924346,"in_relation":false}},{"type":"Feature","geometry":{"type":"Point","coordinates":[18.516209,-33.854832]},"properties":{"kind":"speed_camera","country":"ZA","road":"","limit_kmh":60,"direction":"","source":"OpenStreetMap (ODbL)","osm_id":5895924347,"in_relation":false}},{"type":"Feature","geometry":{"type":"Point","coordinates":[18.682877,-33.88182]},"properties":{"kind":"speed_camera","country":"ZA","road":"","limit_kmh":60,"direction":"","source":"OpenStreetMap (ODbL)","osm_id":5896487851,"in_relation":false}},{"type":"Feature","geometry":{"type":"Point","coordinates":[18.683769,-33.881466]},"properties":{"kind":"speed_camera","country":"ZA","road":"","limit_kmh":60,"direction":"","source":"OpenStreetMap (ODbL)","osm_id":5896487852,"in_relation":false}},{"type":"Feature","geometry":{"type":"Point","coordinates":[18.705036,-33.840496]},"properties":{"kind":"speed_camera","country":"ZA","road":"","limit_kmh":60,"direction":"","source":"OpenStreetMap (ODbL)","osm_id":5896487853,"in_relation":false}},{"type":"Feature","geometry":{"type":"Point","coordinates":[18.672325,-33.955875]},"properties":{"kind":"speed_camera","country":"ZA","road":"","limit_kmh":60,"direction":"","source":"OpenStreetMap (ODbL)","osm_id":5896487854,"in_relation":false}},{"type":"Feature","geometry":{"type":"Point","coordinates":[18.673805,-33.918196]},"properties":{"kind":"speed_camera","country":"ZA","road":"","limit_kmh":60,"direction":"","source":"OpenStreetMap (ODbL)","osm_id":5896487855,"in_relation":false}},{"type":"Feature","geometry":{"type":"Point","coordinates":[18.82564,-34.068972]},"properties":{"kind":"speed_camera","country":"ZA","road":"","limit_kmh":60,"direction":"","source":"OpenStreetMap (ODbL)","osm_id":5896487856,"in_relation":false}},{"type":"Feature","geometry":{"type":"Point","coordinates":[18.818982,-34.090648]},"properties":{"kind":"speed_camera","country":"ZA","road":"","limit_kmh":60,"direction":"","source":"OpenStreetMap (ODbL)","osm_id":5896487858,"in_relation":false}},{"type":"Feature","geometry":{"type":"Point","coordinates":[18.839518,-34.089312]},"properties":{"kind":"speed_camera","country":"ZA","road":"","limit_kmh":60,"direction":"","source":"OpenStreetMap (ODbL)","osm_id":5896487859,"in_relation":false}},{"type":"Feature","geometry":{"type":"Point","coordinates":[18.839996,-34.089941]},"properties":{"kind":"speed_camera","country":"ZA","road":"","limit_kmh":60,"direction":"","source":"OpenStreetMap (ODbL)","osm_id":5896487860,"in_relation":false}},{"type":"Feature","geometry":{"type":"Point","coordinates":[18.843032,-34.087633]},"properties":{"kind":"speed_camera","country":"ZA","road":"","limit_kmh":60,"direction":"","source":"OpenStreetMap (ODbL)","osm_id":5896487861,"in_relation":false}},{"type":"Feature","geometry":{"type":"Point","coordinates":[18.838069,-34.124756]},"properties":{"kind":"speed_camera","country":"ZA","road":"","limit_kmh":60,"direction":"","source":"OpenStreetMap (ODbL)","osm_id":5928601309,"in_relation":false}},{"type":"Feature","geometry":{"type":"Point","coordinates":[18.854143,-33.948602]},"properties":{"kind":"speed_camera","country":"ZA","road":"","limit_kmh":60,"direction":"","source":"OpenStreetMap (ODbL)","osm_id":5928601310,"in_relation":false}},{"type":"Feature","geometry":{"type":"Point","coordinates":[18.494137,-33.972441]},"properties":{"kind":"speed_camera","country":"ZA","road":"","limit_kmh":null,"direction":"","source":"OpenStreetMap (ODbL)","osm_id":5928912493,"in_relation":false}},{"type":"Feature","geometry":{"type":"Point","coordinates":[18.493854,-33.972524]},"properties":{"kind":"speed_camera","country":"ZA","road":"","limit_kmh":null,"direction":"","source":"OpenStreetMap (ODbL)","osm_id":5928912494,"in_relation":false}},{"type":"Feature","geometry":{"type":"Point","coordinates":[18.490716,-33.988543]},"properties":{"kind":"speed_camera","country":"ZA","road":"","limit_kmh":null,"direction":"","source":"OpenStreetMap (ODbL)","osm_id":5928912495,"in_relation":false}},{"type":"Feature","geometry":{"type":"Point","coordinates":[18.490942,-33.984485]},"properties":{"kind":"speed_camera","country":"ZA","road":"","limit_kmh":null,"direction":"","source":"OpenStreetMap (ODbL)","osm_id":5928912496,"in_relation":false}},{"type":"Feature","geometry":{"type":"Point","coordinates":[18.490663,-33.984501]},"properties":{"kind":"speed_camera","country":"ZA","road":"","limit_kmh":null,"direction":"","source":"OpenStreetMap (ODbL)","osm_id":5928912497,"in_relation":false}},{"type":"Feature","geometry":{"type":"Point","coordinates":[18.490452,-33.988783]},"properties":{"kind":"speed_camera","country":"ZA","road":"","limit_kmh":null,"direction":"","source":"OpenStreetMap (ODbL)","osm_id":5928912498,"in_relation":false}},{"type":"Feature","geometry":{"type":"Point","coordinates":[18.488569,-34.00208]},"properties":{"kind":"speed_camera","country":"ZA","road":"","limit_kmh":null,"direction":"","source":"OpenStreetMap (ODbL)","osm_id":5928912499,"in_relation":false}},{"type":"Feature","geometry":{"type":"Point","coordinates":[18.487913,-34.002324]},"properties":{"kind":"speed_camera","country":"ZA","road":"","limit_kmh":null,"direction":"","source":"OpenStreetMap (ODbL)","osm_id":5928912500,"in_relation":false}},{"type":"Feature","geometry":{"type":"Point","coordinates":[18.621216,-33.861566]},"properties":{"kind":"speed_camera","country":"ZA","road":"","limit_kmh":60,"direction":"","source":"OpenStreetMap (ODbL)","osm_id":5948517834,"in_relation":false}},{"type":"Feature","geometry":{"type":"Point","coordinates":[18.849771,-34.099195]},"properties":{"kind":"speed_camera","country":"ZA","road":"","limit_kmh":70,"direction":"","source":"OpenStreetMap (ODbL)","osm_id":5948517837,"in_relation":false}},{"type":"Feature","geometry":{"type":"Point","coordinates":[18.906022,-34.12962]},"properties":{"kind":"speed_camera","country":"ZA","road":"","limit_kmh":80,"direction":"","source":"OpenStreetMap (ODbL)","osm_id":5948517838,"in_relation":false}},{"type":"Feature","geometry":{"type":"Point","coordinates":[28.14093,-25.878798]},"properties":{"kind":"speed_camera","country":"ZA","road":"","limit_kmh":null,"direction":"","source":"OpenStreetMap (ODbL)","osm_id":5972791285,"in_relation":false}},{"type":"Feature","geometry":{"type":"Point","coordinates":[19.292108,-34.410762]},"properties":{"kind":"speed_camera","country":"ZA","road":"","limit_kmh":10,"direction":"","source":"OpenStreetMap (ODbL)","osm_id":6227865601,"in_relation":false}},{"type":"Feature","geometry":{"type":"Point","coordinates":[23.070534,-34.040283]},"properties":{"kind":"speed_camera","country":"ZA","road":"","limit_kmh":10,"direction":"","source":"OpenStreetMap (ODbL)","osm_id":6229709525,"in_relation":false}},{"type":"Feature","geometry":{"type":"Point","coordinates":[30.36003,-30.732218]},"properties":{"kind":"speed_camera","country":"ZA","road":"","limit_kmh":10,"direction":"","source":"OpenStreetMap (ODbL)","osm_id":6239478335,"in_relation":false}},{"type":"Feature","geometry":{"type":"Point","coordinates":[30.383895,-30.726378]},"properties":{"kind":"speed_camera","country":"ZA","road":"","limit_kmh":10,"direction":"","source":"OpenStreetMap (ODbL)","osm_id":6239492257,"in_relation":false}},{"type":"Feature","geometry":{"type":"Point","coordinates":[30.403808,-30.744836]},"properties":{"kind":"speed_camera","country":"ZA","road":"","limit_kmh":10,"direction":"","source":"OpenStreetMap (ODbL)","osm_id":6239495223,"in_relation":false}},{"type":"Feature","geometry":{"type":"Point","coordinates":[30.907614,-30.02855]},"properties":{"kind":"speed_camera","country":"ZA","road":"","limit_kmh":10,"direction":"","source":"OpenStreetMap (ODbL)","osm_id":6239569656,"in_relation":false}},{"type":"Feature","geometry":{"type":"Point","coordinates":[30.974238,-29.896876]},"properties":{"kind":"speed_camera","country":"ZA","road":"","limit_kmh":10,"direction":"","source":"OpenStreetMap (ODbL)","osm_id":6239584726,"in_relation":false}},{"type":"Feature","geometry":{"type":"Point","coordinates":[30.998323,-29.77547]},"properties":{"kind":"speed_camera","country":"ZA","road":"","limit_kmh":10,"direction":"","source":"OpenStreetMap (ODbL)","osm_id":6239609728,"in_relation":false}},{"type":"Feature","geometry":{"type":"Point","coordinates":[31.018226,-29.755789]},"properties":{"kind":"speed_camera","country":"ZA","road":"","limit_kmh":10,"direction":"","source":"OpenStreetMap (ODbL)","osm_id":6239613428,"in_relation":false}},{"type":"Feature","geometry":{"type":"Point","coordinates":[31.077618,-29.726832]},"properties":{"kind":"speed_camera","country":"ZA","road":"","limit_kmh":10,"direction":"","source":"OpenStreetMap (ODbL)","osm_id":6239843593,"in_relation":false}},{"type":"Feature","geometry":{"type":"Point","coordinates":[30.94803,-29.878156]},"properties":{"kind":"speed_camera","country":"ZA","road":"","limit_kmh":10,"direction":"","source":"OpenStreetMap (ODbL)","osm_id":6241015224,"in_relation":false}},{"type":"Feature","geometry":{"type":"Point","coordinates":[30.840744,-29.830108]},"properties":{"kind":"speed_camera","country":"ZA","road":"","limit_kmh":10,"direction":"","source":"OpenStreetMap (ODbL)","osm_id":6241028585,"in_relation":false}},{"type":"Feature","geometry":{"type":"Point","coordinates":[18.534405,-33.87212]},"properties":{"kind":"speed_camera","country":"ZA","road":"","limit_kmh":60,"direction":"","source":"OpenStreetMap (ODbL)","osm_id":6720613727,"in_relation":false}},{"type":"Feature","geometry":{"type":"Point","coordinates":[18.535423,-33.871889]},"properties":{"kind":"speed_camera","country":"ZA","road":"","limit_kmh":60,"direction":"","source":"OpenStreetMap (ODbL)","osm_id":6720613728,"in_relation":false}},{"type":"Feature","geometry":{"type":"Point","coordinates":[18.633072,-33.914557]},"properties":{"kind":"speed_camera","country":"ZA","road":"","limit_kmh":80,"direction":"170","source":"OpenStreetMap (ODbL)","osm_id":6912835040,"in_relation":false}},{"type":"Feature","geometry":{"type":"Point","coordinates":[28.303075,-25.130506]},"properties":{"kind":"speed_camera","country":"ZA","road":"","limit_kmh":60,"direction":"","source":"OpenStreetMap (ODbL)","osm_id":7645464160,"in_relation":false}},{"type":"Feature","geometry":{"type":"Point","coordinates":[28.302373,-25.134748]},"properties":{"kind":"speed_camera","country":"ZA","road":"","limit_kmh":60,"direction":"","source":"OpenStreetMap (ODbL)","osm_id":7645464161,"in_relation":false}},{"type":"Feature","geometry":{"type":"Point","coordinates":[30.65995,-25.174809]},"properties":{"kind":"speed_camera","country":"ZA","road":"","limit_kmh":100,"direction":"20","source":"OpenStreetMap (ODbL)","osm_id":8208915189,"in_relation":false}},{"type":"Feature","geometry":{"type":"Point","coordinates":[28.354841,-24.794429]},"properties":{"kind":"speed_camera","country":"ZA","road":"","limit_kmh":null,"direction":"","source":"OpenStreetMap (ODbL)","osm_id":8389420562,"in_relation":false}},{"type":"Feature","geometry":{"type":"Point","coordinates":[28.529451,-25.749837]},"properties":{"kind":"speed_camera","country":"ZA","road":"","limit_kmh":null,"direction":"","source":"OpenStreetMap (ODbL)","osm_id":9156086148,"in_relation":false}},{"type":"Feature","geometry":{"type":"Point","coordinates":[27.210702,-25.254733]},"properties":{"kind":"speed_camera","country":"ZA","road":"","limit_kmh":null,"direction":"","source":"OpenStreetMap (ODbL)","osm_id":9156113608,"in_relation":false}},{"type":"Feature","geometry":{"type":"Point","coordinates":[29.844954,-26.262225]},"properties":{"kind":"speed_camera","country":"ZA","road":"","limit_kmh":null,"direction":"","source":"OpenStreetMap (ODbL)","osm_id":9156124737,"in_relation":false}},{"type":"Feature","geometry":{"type":"Point","coordinates":[27.321268,-25.461398]},"properties":{"kind":"speed_camera","country":"ZA","road":"","limit_kmh":null,"direction":"","source":"OpenStreetMap (ODbL)","osm_id":9156125056,"in_relation":false}},{"type":"Feature","geometry":{"type":"Point","coordinates":[30.569591,-24.883839]},"properties":{"kind":"speed_camera","country":"ZA","road":"","limit_kmh":null,"direction":"","source":"OpenStreetMap (ODbL)","osm_id":9156127226,"in_relation":false}},{"type":"Feature","geometry":{"type":"Point","coordinates":[27.279217,-25.271598]},"properties":{"kind":"speed_camera","country":"ZA","road":"","limit_kmh":null,"direction":"","source":"OpenStreetMap (ODbL)","osm_id":9156127844,"in_relation":false}},{"type":"Feature","geometry":{"type":"Point","coordinates":[21.252505,-34.094789]},"properties":{"kind":"speed_camera","country":"ZA","road":"","limit_kmh":null,"direction":"150","source":"OpenStreetMap (ODbL)","osm_id":9422740011,"in_relation":false}},{"type":"Feature","geometry":{"type":"Point","coordinates":[22.491992,-33.973987]},"properties":{"kind":"speed_camera","country":"ZA","road":"","limit_kmh":80,"direction":"315","source":"OpenStreetMap (ODbL)","osm_id":9556509893,"in_relation":false}},{"type":"Feature","geometry":{"type":"Point","coordinates":[18.659734,-33.840981]},"properties":{"kind":"speed_camera","country":"ZA","road":"","limit_kmh":null,"direction":"","source":"OpenStreetMap (ODbL)","osm_id":12401734891,"in_relation":false}},{"type":"Feature","geometry":{"type":"Point","coordinates":[18.487877,-33.902946]},"properties":{"kind":"speed_camera","country":"ZA","road":"","limit_kmh":null,"direction":"","source":"OpenStreetMap (ODbL)","osm_id":12432256929,"in_relation":false}},{"type":"Feature","geometry":{"type":"Point","coordinates":[23.375475,-34.057557]},"properties":{"kind":"speed_camera","country":"ZA","road":"","limit_kmh":null,"direction":"","source":"OpenStreetMap (ODbL)","osm_id":12656689674,"in_relation":false}},{"type":"Feature","geometry":{"type":"Point","coordinates":[27.990493,-26.154406]},"properties":{"kind":"speed_camera","country":"ZA","road":"Speed camera facing South East","limit_kmh":60,"direction":"115","source":"OpenStreetMap (ODbL)","osm_id":13275366101,"in_relation":false}},{"type":"Feature","geometry":{"type":"Point","coordinates":[27.990642,-26.154216]},"properties":{"kind":"speed_camera","country":"ZA","road":"Speed camera facing North West","limit_kmh":60,"direction":"289","source":"OpenStreetMap (ODbL)","osm_id":13275366201,"in_relation":false}},{"type":"Feature","geometry":{"type":"Point","coordinates":[18.393674,-33.915089]},"properties":{"kind":"speed_camera","country":"ZA","road":"","limit_kmh":50,"direction":"210","source":"OpenStreetMap (ODbL)","osm_id":13375832446,"in_relation":false}},{"type":"Feature","geometry":{"type":"Point","coordinates":[18.488251,-34.054183]},"properties":{"kind":"speed_camera","country":"ZA","road":"","limit_kmh":70,"direction":"","source":"OpenStreetMap (ODbL)","osm_id":13573178406,"in_relation":false}},{"type":"Feature","geometry":{"type":"Point","coordinates":[26.454905,-28.076016]},"properties":{"kind":"anpr_camera","country":"ZA","road":"","limit_kmh":null,"direction":"70;31","source":"OpenStreetMap (ODbL)","osm_id":14068188011,"in_relation":false}},{"type":"Feature","geometry":{"type":"Point","coordinates":[20.430259,-34.047588]},"properties":{"kind":"speed_camera","country":"ZA","road":"","limit_kmh":null,"direction":"","source":"OpenStreetMap (ODbL)","osm_id":436258286,"in_relation":true}}]}